[{"OBJECT_NAME":"STARLINK-3896","OBJECT_ID":"2022-049F","EPOCH":"2026-03-09T05:37:40.826784","MEAN_MOTION":15.08830227,"ECCENTRICITY":0.00013403,"INCLINATION":53.2162,"RA_OF_ASC_NODE":71.1643,"ARG_OF_PERICENTER":88.6159,"MEAN_ANOMALY":271.4987,"EPHEMERIS_TYPE":0,"CLASSIFICATION_TYPE":"U","NORAD_CAT_ID":52456,"ELEMENT_SET_NO":999,"REV_AT_EPOCH":21204,"BSTAR":-0.00016661055,"MEAN_MOTION_DOT":-2.938e-5,"MEAN_MOTION_DDOT":0},{"OBJECT_NAME":"YUNYAO-1 46","OBJECT_ID":"2025-059D","EPOCH":"2026-03-09T22:34:36.342624","MEAN_MOTION":15.10325082,"ECCENTRICITY":0.00132847,"INCLINATION":97.6091,"RA_OF_ASC_NODE":250.9055,"ARG_OF_PERICENTER":123.8801,"MEAN_ANOMALY":236.3694,"EPHEMERIS_TYPE":0,"CLASSIFICATION_TYPE":"U","NORAD_CAT_ID":63347,"ELEMENT_SET_NO":999,"REV_AT_EPOCH":5331,"BSTAR":0.0002771923,"MEAN_MOTION_DOT":4.488e-5,"MEAN_MOTION_DDOT":0}]
